{"fetched_at":"2026-03-29T16:36:15Z","count":15609,"tles":[{"name":"HULIANWANG DIGUI-147","line1":"1 67523U 26013B   26087.85900210 -.00000058  00000+0  14255-3 0  9996","line2":"2 67523  50.0043 283.8784 0000118 122.5175 237.5709 13.29323872  9361","category":"Other"}]}